{
  "type": "FeatureCollection",
  "features": [
    {
      "type": "Feature",
      "properties": {
        "id": "MPA-01",
        "name": "Gulf of Mannar Marine National Park",
        "state": "Tamil Nadu",
        "category": "Strict Ecological Reserve - No Commercial Trawling",
        "designatedYear": 1986
      },
      "geometry": {
        "type": "Polygon",
        "coordinates": [
          [
            [78.80, 9.25],
            [79.25, 9.25],
            [79.35, 9.10],
            [78.90, 8.85],
            [78.60, 8.75],
            [78.80, 9.25]
          ]
        ]
      }
    },
    {
      "type": "Feature",
      "properties": {
        "id": "MPA-02",
        "name": "Marine National Park, Gulf of Kutch",
        "state": "Gujarat",
        "category": "Coral Reef & Mangrove Sanctuary",
        "designatedYear": 1982
      },
      "geometry": {
        "type": "Polygon",
        "coordinates": [
          [
            [69.10, 22.45],
            [70.00, 22.75],
            [70.30, 22.80],
            [70.30, 22.50],
            [69.60, 22.35],
            [69.10, 22.45]
          ]
        ]
      }
    },
    {
      "type": "Feature",
      "properties": {
        "id": "MPA-03",
        "name": "Sundarbans Biosphere Reserve - Coastal Buffer",
        "state": "West Bengal",
        "category": "UNESCO World Heritage Tidal Mangrove Protected Zone",
        "designatedYear": 1989
      },
      "geometry": {
        "type": "Polygon",
        "coordinates": [
          [
            [88.30, 21.50],
            [89.15, 21.60],
            [89.15, 21.85],
            [88.30, 21.85],
            [88.30, 21.50]
          ]
        ]
      }
    },
    {
      "type": "Feature",
      "properties": {
        "id": "MPA-04",
        "name": "Malvan Marine Sanctuary",
        "state": "Maharashtra",
        "category": "Coastal Reef Conservation Zone",
        "designatedYear": 1987
      },
      "geometry": {
        "type": "Polygon",
        "coordinates": [
          [
            [73.44, 16.03],
            [73.49, 16.08],
            [73.53, 16.05],
            [73.48, 16.00],
            [73.44, 16.03]
          ]
        ]
      }
    }
  ]
}
